#aV2008  8  1  0  0   .00000000      96 DD+AD WGS84 FIT  NGA
## 1490 432000.00000000   900.00000000 54679  .0000000000000
+   31     2  3  4  5  6  7  8  9 10 11 12 13 14 15 16 17 18
+         19 20 21 22 23 24 25 26 27 28 29 30 31 32  0  0  0
+          0  0  0  0  0  0  0  0  0  0  0  0  0  0  0  0  0
+          0  0  0  0  0  0  0  0  0  0  0  0  0  0  0  0  0
+          0  0  0  0  0  0  0  0  0  0  0  0  0  0  0  0  0
++         0  0  0  0  0  0  0  0  0  0  0  0  0  0  0  0  0
++         0  0  0  0  0  0  0  0  0  0  0  0  0  0  0  0  0
++         0  0  0  0  0  0  0  0  0  0  0  0  0  0  0  0  0
++         0  0  0  0  0  0  0  0  0  0  0  0  0  0  0  0  0
++         0  0  0  0  0  0  0  0  0  0  0  0  0  0  0  0  0
%c cc cc ccc ccc cccc cccc cccc cccc ccccc ccccc ccccc ccccc
%c cc cc ccc ccc cccc cccc cccc cccc ccccc ccccc ccccc ccccc
%f  0.0000000  0.000000000  0.00000000000  0.000000000000000
%f  0.0000000  0.000000000  0.00000000000  0.000000000000000
%i    0    0    0    0      0      0      0      0         0
%i    0    0    0    0      0      0      0      0         0
/*      NGA, ST. LOUIS,MO.                                  
/*   EPHEMERIS COMPUTED FROM  3 DAYS OF DATA                
/* CCCCCCCCCCCCCCCCCCCCCCCCCCCCCCCCCCCCCCCCCCCCCCCCCCCCCCCCC
/* CCCCCCCCCCCCCCCCCCCCCCCCCCCCCCCCCCCCCCCCCCCCCCCCCCCCCCCCC
*  2008  8  1 22 15   .00000000                                                 
P  2 -19672.505541   6944.770390 -16368.844742    197.900807                    
V  2  10181.548201 -18201.424256 -20497.377687      -.026609                    
P  3  17020.533900   -804.218206  20179.655679    263.816417                    
V  3  12180.084376  23309.384850  -8867.144431       .052194                    
P  4 -15810.165670  -4426.433617 -21032.475682   -131.094695                    
V  4  15440.964769 -21530.179340  -6745.250280      -.101748                    
P  5  -7842.131281  14919.123779 -20784.330341   -358.256319                    
V  5 -25817.641654  -1465.681666   8948.460563      -.169084                    
P  6  17967.570338   4259.111396  19281.327758    165.266122                    
V  6   9202.617218  22410.397881 -13675.151920       .020479                    
P  7   3573.406367 -21887.803060  14521.567781      3.594667                    
V  7  12688.416700 -13658.671018 -23741.044781       .046354                    
P  8  -6993.640424 -13865.507874  21383.794061   -164.186566                    
V  8  17966.967171 -20667.524021  -7962.774087      -.015010                    
P  9 -14201.925975  22342.253232  -1254.522594      8.030336                    
V  9  -2587.677598   -768.956336  32047.005336       .017660                    
P 10 -25778.349826   1252.364809   6821.554795     -3.456333                    
V 10  -8359.230948  -3545.202787 -30008.054820      -.003642                    
P 11  10381.762427 -24230.714851  -1138.567817     22.379963                    
V 11   5340.114151   1076.855145  30273.278775      -.006672                    
P 12 -13467.523976  11982.234274 -19389.186916   -355.681770                    
V 12 -24510.661938  -4108.722151  14521.743055       .009671                    
P 13  -5214.058656 -25285.537984  -6374.407902    266.071464                    
V 13   4319.681322   6815.447003 -31146.070075       .013909                    
P 14  15055.860595  19324.479784 -10300.380574   -237.203961                    
V 14   3386.230287  12819.064739  28605.136292       .044835                    
P 15 -11358.888878  11189.304052  21263.034426   -152.771322                    
V 15 -11668.496328 -24310.685152   6576.972430      -.064225                    
P 16  26525.933751   2316.277669   1667.124959    114.233913                    
V 16   1688.785005   2695.411286 -31650.840327      -.018142                    
P 17 -15884.761620 -18564.990318 -10573.676164     38.843178                    
V 17  -3034.063233 -13305.527728  27638.391749       .002666                    
P 18   8152.174328  15781.996647  20045.449352   -149.725303                    
V 18 -24856.506212  -2629.004408  11928.347880       .042516                    
P 19  11604.056061 -11473.001083  21002.241495     34.245060                    
V 19   9715.014995  24702.086091   8355.151384       .004054                    
P 20  11243.620752 -13462.094423 -20052.823605    108.620922                    
V 20  25044.700648   3549.086327  11758.808975      -.008732                    
P 21   1885.516617  19320.687095  18058.120790     55.970452                    
V 21 -15754.813401  16684.378231 -17008.485320      -.013551                    
P 22  20561.169420  11967.825805  12032.240865    211.480588                    
V 22 -15277.352968    358.038995  26031.677433      -.001329                    
P 23   2810.368775 -20956.605669 -15975.048039    367.109223                    
V 23   9747.833973  17840.615129 -22031.983577       .017197                    
P 24 -11594.803042  22838.331734   7712.500897    113.894310                    
V 24  -8071.915131   5685.626635 -29335.735431       .028892                    
P 25   7631.837091 -24199.688344   8506.110425   -208.708479                    
V 25   7201.910054  -7641.517852 -29264.046772      -.109961                    
P 26 -13256.190523   5277.479565  21903.904709    302.776881                    
V 26 -10582.797253 -26940.869205    595.025506       .064478                    
P 27   -269.655986 -20939.172191  16938.628140    207.046914                    
V 27  12290.824303 -16183.446393 -20766.976056       .027660                    
P 28 -19702.147786 -12272.073567  13597.718483    -21.552250                    
V 28  16577.830604    518.848524  24887.250546      -.003446                    
P 29   3344.860705  24718.454710  -9053.993772    -40.701666                    
V 29  -6847.517900  -9780.366852 -28826.758756       .006538                    
P 30   1993.851992  15701.353235 -21688.644370     88.948708                    
V 30 -26701.480891  -1601.561513  -3577.022283       .019050                    
P 31  16398.948378   1630.404405 -20653.878880    -24.999350                    
V 31 -15074.314699  21972.415023 -10028.260817      -.000549                    
P 32  18713.810810  -7908.879513 -16582.931407    311.039867                    
V 32  21147.074695   6124.017192  20589.402564       .022451                    
EOF
